     2.10           G: GLONASS NAV DATA                     RINEX VERSION / TYPE
teqc  2015Jun23                         20210605 02:25:48UTCPGM / RUN BY / DATE
Linux 2.4.21-27.ELsmp|Opteron|gcc -static|Linux x86_64|=+   COMMENT
  2021     5    12    1.862645149231D-08                    CORR TO SYSTEM TIME
                                                            END OF HEADER
 2 21  5 13  0 15  0.0 4.783673211932D-04 9.094947017729D-13 0.000000000000D+00
    9.830041992188D+03 4.253292083740D-01 0.000000000000D+00 0.000000000000D+00
    1.818694580078D+04 1.999611854553D+00-1.862645149231D-09-4.000000000000D+00
    1.494986865234D+04-2.725850105286D+00-1.862645149231D-09 0.000000000000D+00
23 21  5 13  0 15  0.0 3.845766186714D-04 1.818989403546D-12 0.000000000000D+00
   -3.212850585938D+03-2.189304351807D+00 1.862645149231D-09 0.000000000000D+00
    1.431356396484D+04 1.844664573669D+00-9.313225746155D-10 3.000000000000D+00
   -2.087700634766D+04 1.603028297424D+00 9.313225746155D-10 0.000000000000D+00
 1 21  5 13  0 15  0.0 7.934030145407D-05 0.000000000000D+00 0.000000000000D+00
    1.782903320312D+03 1.275444030762D-02 9.313225746155D-10 0.000000000000D+00
    2.490147900391D+04-7.359638214111D-01-1.862645149231D-09 1.000000000000D+00
   -5.273745117188D+03-3.463993072510D+00-0.000000000000D+00 0.000000000000D+00
 8 21  5 13  0 15  0.0-5.894992500544D-05-0.000000000000D+00 0.000000000000D+00
   -6.024628906250D+03-2.752962112427D-01 9.313225746155D-10 0.000000000000D+00
    1.704915283203D+04-2.454947471619D+00-9.313225746155D-10 6.000000000000D+00
   -1.792253857422D+04-2.236680984497D+00 1.862645149231D-09 0.000000000000D+00
12 21  5 13  0 15  0.0 2.284077927470D-04 3.637978807092D-12 0.000000000000D+00
    6.041207031250D+03-2.666798591614D+00-9.313225746155D-10 0.000000000000D+00
    1.305964794922D+04-1.091385841370D+00-9.313225746155D-10-1.000000000000D+00
    2.108152294922D+04 1.443549156189D+00-1.862645149231D-09 0.000000000000D+00
21 21  5 13  0 15  0.0-2.084998413920D-04-2.728484105319D-12 0.000000000000D+00
   -2.019882910156D+04 1.535117149353D+00-4.656612873077D-09 0.000000000000D+00
    8.415777343750D+03-9.595689773560D-01-9.313225746155D-10 4.000000000000D+00
    1.312250097656D+04 2.975250244141D+00 9.313225746155D-10 0.000000000000D+00
22 21  5 13  0 15  0.0-1.124367117882D-04-1.818989403546D-12 0.000000000000D+00
   -1.899131054688D+04-2.088975906372D-01-1.862645149231D-09 0.000000000000D+00
    1.662865136719D+04 4.663057327271D-01-1.862645149231D-09-3.000000000000D+00
   -3.299754394531D+03 3.581257820129D+00 1.862645149231D-09 0.000000000000D+00
 2 21  5 13  0 45  0.0 4.783701151609D-04 9.094947017729D-13 1.800000000000D+03
    1.070192089844D+04 5.036077499390D-01 0.000000000000D+00 0.000000000000D+00
    2.109106884766D+04 1.207168579102D+00-1.862645149231D-09-4.000000000000D+00
    9.528757812500D+03-3.258637428284D+00-9.313225746155D-10 0.000000000000D+00
23 21  5 13  0 45  0.0 3.845812752843D-04 1.818989403546D-12 1.800000000000D+03
   -6.581683105469D+03-1.536929130554D+00 0.000000000000D+00 0.000000000000D+00
    1.763522314453D+04 1.798739433289D+00-1.862645149231D-09 3.000000000000D+00
   -1.722245556641D+04 2.431290626526D+00 1.862645149231D-09 0.000000000000D+00
 1 21  5 13  0 45  0.0 7.934216409922D-05 0.000000000000D+00 1.800000000000D+03
    1.515537109375D+03-3.420343399048D-01 9.313225746155D-10 0.000000000000D+00
    2.286133398438D+04-1.503877639771D+00-1.862645149231D-09 1.000000000000D+00
   -1.122469140625D+04-3.105245590210D+00 9.313225746155D-10 0.000000000000D+00
 8 21  5 13  0 45  0.0-5.895178765059D-05-0.000000000000D+00 1.800000000000D+03
   -6.943567382812D+03-7.565259933472D-01 9.313225746155D-10 0.000000000000D+00
    1.225856054688D+04-2.819736480713D+00-9.313225746155D-10 6.000000000000D+00
   -2.119930468750D+04-1.380304336548D+00 1.862645149231D-09 0.000000000000D+00
12 21  5 13  0 45  0.0 2.284143120050D-04 3.637978807092D-12 1.800000000000D+03
    8.751015625000D+02-3.029206275940D+00-2.793967723846D-09 0.000000000000D+00
    1.138293945312D+04-7.462711334229D-01-9.313225746155D-10-1.000000000000D+00
    2.283324023438D+04 4.902820587158D-01-9.313225746155D-10 0.000000000000D+00
22 21  5 13  0 45  0.0-1.124413684011D-04-1.818989403546D-12 1.800000000000D+03
   -1.872111767578D+04 4.807853698730D-01-3.725290298462D-09 0.000000000000D+00
    1.694592919922D+04-1.459140777588D-01-9.313225746155D-10-3.000000000000D+00
    3.191066406250D+03 3.583628654480D+00 1.862645149231D-09 0.000000000000D+00
24 21  5 13  0 45  0.0 4.240311682224D-05 9.094947017729D-13 3.210000000000D+03
    5.227392578125D+03-2.199486732483D+00 2.793967723846D-09 0.000000000000D+00
    9.939245605469D+03 2.239212036133D+00-9.313225746155D-10 2.000000000000D+00
   -2.289129492188D+04 4.689302444458D-01 9.313225746155D-10 0.000000000000D+00
24 21  5 13  1 15  0.0 4.240591078997D-05 1.818989403546D-12 3.600000000000D+03
    1.690884277344D+03-1.705180168152D+00 9.313225746155D-10 0.000000000000D+00
    1.411052246094D+04 2.350384712219D+00-1.862645149231D-09 2.000000000000D+00
   -2.117233496094D+04 1.428581237793D+00 9.313225746155D-10 0.000000000000D+00
 2 21  5 13  1 15  0.0 4.783719778061D-04 9.094947017729D-13 3.600000000000D+03
    1.149278027344D+04 3.330011367798D-01 0.000000000000D+00 0.000000000000D+00
    2.249498876953D+04 3.520536422729D-01-2.793967723846D-09-4.000000000000D+00
    3.370104003906D+03-3.539860725403D+00-9.313225746155D-10 0.000000000000D+00
 1 21  5 13  1 15  0.0 7.934309542179D-05 0.000000000000D+00 3.600000000000D+03
    4.579648437500D+02-8.518142700195D-01 9.313225746155D-10 0.000000000000D+00
    1.961118408203D+04-2.066806793213D+00-1.862645149231D-09 1.000000000000D+00
   -1.630819921875D+04-2.506405830383D+00 9.313225746155D-10 0.000000000000D+00
 8 21  5 13  1 15  0.0-5.895271897316D-05-0.000000000000D+00 3.600000000000D+03
   -8.754416015625D+03-1.248081207275D+00 0.000000000000D+00 0.000000000000D+00
    7.079360351562D+03-2.884014129639D+00-0.000000000000D+00 6.000000000000D+00
   -2.282685058594D+04-4.162445068359D-01 2.793967723846D-09 0.000000000000D+00
22 21  5 13  1 15  0.0-1.124460250139D-04-1.818989403546D-12 3.600000000000D+03
   -1.738729101562D+04 9.604148864746D-01-4.656612873077D-09 0.000000000000D+00
    1.601538720703D+04-9.037971496582D-01-0.000000000000D+00-3.000000000000D+00
    9.433498535156D+03 3.307061195374D+00 9.313225746155D-10 0.000000000000D+00
23 21  5 13  1 15  0.0 3.845859318972D-04 1.818989403546D-12 3.600000000000D+03
   -8.719845214844D+03-8.413915634155D-01-9.313225746155D-10 0.000000000000D+00
    2.061573583984D+04 1.465608596802D+00-1.862645149231D-09 3.000000000000D+00
   -1.223718701172D+04 3.071990966797D+00 1.862645149231D-09 0.000000000000D+00
12 21  5 13  1 15  0.0 2.284198999405D-04 3.637978807092D-12 3.720000000000D+03
   -4.690395507812D+03-3.103842735291D+00-3.725290298462D-09 0.000000000000D+00
    1.043520849609D+04-2.981538772583D-01-0.000000000000D+00-1.000000000000D+00
    2.282404736328D+04-5.003786087036D-01-9.313225746155D-10 0.000000000000D+00
24 21  5 13  1 45  0.0 4.240870475769D-05 1.818989403546D-12 5.400000000000D+03
   -8.539331054688D+02-1.115732192993D+00 0.000000000000D+00 0.000000000000D+00
    1.822836328125D+04 2.175980567932D+00-1.862645149231D-09 2.000000000000D+00
   -1.781501660156D+04 2.277500152588D+00 1.862645149231D-09 0.000000000000D+00
 2 21  5 13  1 45  0.0 4.783831536770D-04 9.094947017729D-13 5.400000000000D+03
    1.175600195312D+04-7.731056213379D-02 0.000000000000D+00 0.000000000000D+00
    2.239096240234D+04-4.492712020874D-01-2.793967723846D-09-4.000000000000D+00
   -3.049751953125D+03-3.546825408936D+00-0.000000000000D+00 0.000000000000D+00
 1 21  5 13  1 45  0.0 7.934402674437D-05 0.000000000000D+00 5.400000000000D+03
   -1.588293945312D+03-1.423261642456D+00 0.000000000000D+00 0.000000000000D+00
    1.558235595703D+04-2.361980438232D+00-9.313225746155D-10 1.000000000000D+00
   -2.013108593750D+04-1.713629722595D+00 1.862645149231D-09 0.000000000000D+00
22 21  5 13  1 45  0.0-1.124506816268D-04-1.818989403546D-12 5.400000000000D+03
   -1.542287646484D+04 1.176204681396D+00-4.656612873077D-09 0.000000000000D+00
    1.367023242188D+04-1.698049545288D+00 0.000000000000D+00-3.000000000000D+00
    1.494171582031D+04 2.773228645325D+00 9.313225746155D-10 0.000000000000D+00
23 21  5 13  1 45  0.0 3.845905885100D-04 1.818989403546D-12 5.400000000000D+03
   -9.653977050781D+03-2.174358367920D-01-2.793967723846D-09 0.000000000000D+00
    2.275246972656D+04 8.690738677979D-01-9.313225746155D-10 3.000000000000D+00
   -6.306001464844D+03 3.475452423096D+00 1.862645149231D-09 0.000000000000D+00
12 21  5 13  1 45  0.0 2.284264191985D-04 3.637978807092D-12 5.490000000000D+03
   -1.011454199219D+04-2.873058319092D+00-4.656612873077D-09 0.000000000000D+00
    1.030804150391D+04 1.474437713623D-01 0.000000000000D+00-1.000000000000D+00
    2.105519238281D+04-1.452281951904D+00-0.000000000000D+00 0.000000000000D+00
 3 21  5 13  1 45  0.0 3.585312515497D-05 0.000000000000D+00 6.210000000000D+03
    1.622959716797D+04 1.089234352112D+00 0.000000000000D+00 0.000000000000D+00
    1.400364648438D+04 1.546369552612D+00-1.862645149231D-09 5.000000000000D+00
    1.383604003906D+04-2.857136726379D+00-1.862645149231D-09 0.000000000000D+00
24 21  5 13  2 15  0.0 4.241149872541D-05 1.818989403546D-12 7.200000000000D+03
   -2.335520507812D+03-5.423259735107D-01-9.313225746155D-10 0.000000000000D+00
    2.177191992188D+04 1.716245651245D+00-9.313225746155D-10 2.000000000000D+00
   -1.307944091797D+04 2.950037956238D+00 1.862645149231D-09 0.000000000000D+00
 2 21  5 13  2 15  0.0 4.783850163221D-04 0.000000000000D+00 7.200000000000D+03
    1.110185009766D+04-6.740961074829D-01 0.000000000000D+00 0.000000000000D+00
    2.097368945312D+04-1.091427803040D+00-2.793967723846D-09-4.000000000000D+00
   -9.232694824219D+03-3.278236389160D+00 0.000000000000D+00 0.000000000000D+00
